{"fetched_at":"2026-03-30T06:02:59Z","count":15439,"tles":[{"name":"STARLINK-32544","line1":"1 61917U 24207F   26087.58655073  .00041468  00000+0  15067-2 0  9994","line2":"2 61917  43.0017 174.8876 0001523 275.7575  84.3103 15.27608180 77619","category":"Starlink"}]}